NORAD_CAT_ID,OBJECT_NAME,OBJECT_TYPE,EPOCH,MEAN_MOTION,ECCENTRICITY,INCLINATION,RA_OF_ASC_NODE,ARG_OF_PERICENTER,MEAN_ANOMALY,BSTAR,MEAN_MOTION_DOT,MEAN_MOTION_DDOT,TLE_LINE0,TLE_LINE1,TLE_LINE2,SEMIMAJOR_AXIS,PERIOD,APOGEE,PERIGEE,DECAYED
56782.0,STARLINK-6352,PAYLOAD,2023-12-16 06:00:02,15.08991745,0.0003135,69.999,218.2287,269.3071,5.8264,-0.066219,-0.00966372,0.0,0 STARLINK-6352,1 56782U 23078R   23350.25002315 -.00966372  00000-0 -66219-1 0  9999,2 56782  69.9990 218.2287 0003135 269.3071   5.8264 15.08991745 31437,6917.417,95.428,541.45,537.113,0.0
56782.0,STARLINK-6352,PAYLOAD,2023-12-16 14:00:01,15.08298516,0.0003175,69.9992,217.3748,264.4357,20.4863,-0.061177,-0.00882314,0.0,0 STARLINK-6352,1 56782U 23078R   23350.58334491 -.00882314  00000-0 -61177-1 0  9999,2 56782  69.9992 217.3748 0003175 264.4357  20.4863 15.08298516  5994,6919.536,95.472,543.598,539.204,0.0
56782.0,STARLINK-6352,PAYLOAD,2023-12-16 22:00:00,15.07653521,0.0003232,69.9992,216.5217,269.6675,24.3204,-0.064107,-0.00906541,0.0,0 STARLINK-6352,1 56782U 23078R   23350.91667824 -.00906541  00000-0 -64107-1 0  9990,2 56782  69.9992 216.5217 0003232 269.6675  24.3204 15.07653521 31531,6921.509,95.513,545.611,541.137,0.0
56782.0,STARLINK-6352,PAYLOAD,2023-12-17 14:00:01,15.06343374,0.0003204,69.9993,214.8181,265.2315,44.5919,-0.064667,-0.00884148,0.0,0 STARLINK-6352,1 56782U 23078R   23351.58335648 -.00884148  00000-0 -64667-1 0  9999,2 56782  69.9993 214.8181 0003204 265.2315  44.5919 15.06343374  5994,6925.522,95.596,549.606,545.168,0.0
56782.0,STARLINK-6352,PAYLOAD,2023-12-17 22:00:00,15.05696075,0.0003247,69.9993,213.9676,270.7038,45.7768,-0.067458,-0.00904702,0.0,0 STARLINK-6352,1 56782U 23078R   23351.91667824 -.00904702  00000-0 -67458-1 0  9990,2 56782  69.9993 213.9676 0003247 270.7038  45.7768 15.05696075 31681,6927.507,95.637,551.621,547.122,0.0
56782.0,STARLINK-6352,PAYLOAD,2023-12-18 14:00:01,15.04388971,0.0003211,69.9995,212.2691,265.9966,61.562,-0.068429,-0.00887317,0.0,0 STARLINK-6352,1 56782U 23078R   23352.58334491 -.00887317  00000-0 -68429-1 0  9996,2 56782  69.9995 212.2691 0003211 265.9966  61.5620 15.04388971 31785,6931.519,95.72,555.61,551.158,0.0
56782.0,STARLINK-6352,PAYLOAD,2023-12-18 22:00:01,15.03739912,0.0003256,69.9995,211.421,271.8074,60.1873,-0.071157,-0.00905382,0.0,0 STARLINK-6352,1 56782U 23078R   23352.91668981 -.00905382  00000-0 -71157-1 0  9992,2 56782  69.9995 211.4210 0003256 271.8074  60.1873 15.03739912  5889,6933.513,95.761,557.636,553.121,0.0
56782.0,STARLINK-6352,PAYLOAD,2023-12-19 06:00:00,15.03117497,0.0003205,69.9993,210.5738,271.3048,64.2052,-0.077342,-0.00974335,0.0,0 STARLINK-6352,1 56782U 23078R   23353.25001157 -.00974335  00000-0 -77342-1 0  9992,2 56782  69.9993 210.5738 0003205 271.3048  64.2052 15.03117497 31883,6935.427,95.801,559.515,555.069,0.0
56782.0,STARLINK-6352,PAYLOAD,2023-12-19 14:00:01,15.02435547,0.00032,69.9997,209.7276,266.2316,72.0841,-0.072534,-0.00892366,0.0,0 STARLINK-6352,1 56782U 23078R   23353.58334491 -.00892366  00000-0 -72534-1 0  9999,2 56782  69.9997 209.7276 0003200 266.2316  72.0841 15.02435547  5983,6937.526,95.844,561.611,557.171,0.0
56782.0,STARLINK-6352,PAYLOAD,2023-12-19 22:00:00,15.01783013,0.0003272,69.9998,208.882,272.1029,68.2411,-0.074988,-0.00905692,0.0,0 STARLINK-6352,1 56782U 23078R   23353.91667824 -.00905692  00000-0 -74988-1 0  9997,2 56782  69.9998 208.8820 0003272 272.1029  68.2411 15.01783013 31987,6939.535,95.886,563.671,559.13,0.0
56782.0,STARLINK-6352,PAYLOAD,2023-12-20 14:00:01,15.00484408,0.0003242,69.9999,207.1937,265.8903,76.1415,-0.077155,-0.00900843,0.0,0 STARLINK-6352,1 56782U 23078R   23354.58334491 -.00900843  00000-0 -77155-1 0  9994,2 56782  69.9999 207.1937 0003242 265.8903  76.1415 15.00484408  5973,6943.539,95.969,567.655,563.152,0.0
56782.0,STARLINK-6352,PAYLOAD,2023-12-20 22:00:00,14.99697412,0.0003236,69.9999,206.3507,271.9652,69.7735,-0.046348,-0.00537373,0.0,0 STARLINK-6352,1 56782U 23078R   23354.91667824 -.00537373  00000-0 -46348-1 0  9994,2 56782  69.9999 206.3507 0003236 271.9652  69.7735 14.99697412 32138,6945.967,96.019,570.08,565.585,0.0
56782.0,STARLINK-6352,PAYLOAD,2023-12-21 06:00:00,14.99308016,0.0003223,69.9996,205.5086,270.6929,69.9251,-0.0039086,-0.00047607,0.0,0 STARLINK-6352,1 56782U 23078R   23355.25001157 -.00047607  00000-0 -39086-2 0  9991,2 56782  69.9996 205.5086 0003223 270.6929  69.9251 14.99308016 32186,6947.17,96.044,571.274,566.796,0.0
56782.0,STARLINK-6352,PAYLOAD,2023-12-21 14:00:01,14.99289886,0.0003241,69.9999,204.6667,265.5135,73.7365,0.001571,0.00019176,0.0,0 STARLINK-6352,1 56782U 23078R   23355.58334491  .00019176  00000-0  15710-2 0  9993,2 56782  69.9999 204.6667 0003241 265.5135  73.7365 14.99289886  6066,6947.226,96.045,571.343,566.84,0.0
56782.0,STARLINK-6352,PAYLOAD,2023-12-21 22:00:01,14.99293276,0.0003221,69.9998,203.8251,271.967,65.9943,0.00096015,0.00011672,0.0,0 STARLINK-6352,1 56782U 23078R   23355.91668981  .00011672  00000-0  96015-3 0  9995,2 56782  69.9998 203.8251 0003221 271.9670  65.9943 14.99293276 32284,6947.216,96.045,571.318,566.843,0.0
56782.0,STARLINK-6352,PAYLOAD,2023-12-22 00:00:00,14.99284944,0.0003244,69.9998,203.6146,272.7389,154.8237,0.0027056,0.00033155,0.0,0 STARLINK-6352,1 56782U 23078R   23356.00001157  .00033155  00000-0  27056-2 0  9990,2 56782  69.9998 203.6146 0003244 272.7389 154.8237 14.99284944  5978,6947.241,96.046,571.36,566.853,0.0
56782.0,STARLINK-6352,PAYLOAD,2023-12-22 06:00:00,14.99323094,0.0003182,69.9995,202.9835,270.5071,65.8767,-0.0035202,-0.0004293,0.0,0 STARLINK-6352,1 56782U 23078R   23356.25001157 -.00042930  00000-0 -35202-2 0  9992,2 56782  69.9995 202.9835 0003182 270.5071  65.8767 14.99323094 32336,6947.124,96.043,571.199,566.778,0.0
56782.0,STARLINK-6352,PAYLOAD,2023-12-22 14:00:01,14.99314403,0.0003202,69.9998,202.1418,265.8775,69.1608,0.0014262,0.00017407,0.0,0 STARLINK-6352,1 56782U 23078R   23356.58334491  .00017407  00000-0  14262-2 0  9990,2 56782  69.9998 202.1418 0003202 265.8775  69.1608 14.99314403 32389,6947.15,96.044,571.24,566.791,0.0
56782.0,STARLINK-6352,PAYLOAD,2023-12-22 22:00:00,14.99303268,0.0003178,69.9996,201.3001,272.1492,61.5634,0.0021626,0.0002647,0.0,0 STARLINK-6352,1 56782U 23078R   23356.91667824  .00026470  00000-0  21626-2 0  9998,2 56782  69.9996 201.3001 0003178 272.1492  61.5634 14.99303268  5905,6947.185,96.045,571.258,566.842,0.0
56782.0,STARLINK-6352,PAYLOAD,2023-12-23 06:00:00,14.99335739,0.0003164,69.9993,200.4582,270.6911,61.6812,-0.0031639,-0.00038631,0.0,0 STARLINK-6352,1 56782U 23078R   23357.25001157 -.00038631  00000-0 -31639-2 0  9996,2 56782  69.9993 200.4582 0003164 270.6911  61.6812 14.99335739 32480,6947.084,96.043,571.148,566.751,0.0
56782.0,STARLINK-6352,PAYLOAD,2023-12-23 14:00:01,14.99331805,0.0003198,69.9995,199.6166,266.5232,64.515,0.00059826,7.24e-05,0.0,0 STARLINK-6352,1 56782U 23078R   23357.58334491  .00007240  00000-0  59826-3 0  9991,2 56782  69.9995 199.6166 0003198 266.5232  64.5150 14.99331805  5977,6947.097,96.043,571.183,566.74,0.0
56782.0,STARLINK-6352,PAYLOAD,2023-12-23 22:00:00,14.99314472,0.0003156,69.9993,198.7749,273.576,56.1527,0.00058743,7.104e-05,0.0,0 STARLINK-6352,1 56782U 23078R   23357.91667824  .00007104  00000-0  58743-3 0  9993,2 56782  69.9993 198.7749 0003156 273.5760  56.1527 14.99314472 32583,6947.15,96.044,571.208,566.823,0.0
56782.0,STARLINK-6352,PAYLOAD,2023-12-23 23:44:11,14.99276046,0.0003075,69.9977,198.5911,262.9808,97.1002,0.00077087,9.345e-05,0.0,0 STARLINK-6352,1 56782U 23078R   23357.98902014  .00009345  00000-0  77087-3 0  9994,2 56782  69.9977 198.5911 0003075 262.9808  97.1002 14.99276046 32597,6947.269,96.046,571.27,566.998,0.0
56782.0,STARLINK-6352,PAYLOAD,2023-12-24 12:32:45,14.99316116,0.0002991,69.9979,197.2444,263.7166,96.3653,3.7683e-05,3.67e-06,0.0,0 STARLINK-6352,1 56782U 23078R   23358.52274747  .00000367  00000-0  37683-4 0  9994,2 56782  69.9979 197.2444 0002991 263.7166  96.3653 14.99316116 32673,6947.145,96.044,571.088,566.932,0.0
56782.0,STARLINK-6352,PAYLOAD,2023-12-24 14:08:49,14.99316186,0.0002988,69.9979,197.0759,263.6419,96.44,3.722e-05,3.62e-06,0.0,0 STARLINK-6352,1 56782U 23078R   23358.58946347  .00000362  00000-0  37220-4 0  9994,2 56782  69.9979 197.0759 0002988 263.6419  96.4400 14.99316186 32427,6947.145,96.044,571.086,566.934,0.0
56782.0,STARLINK-6352,PAYLOAD,2023-12-24 22:09:10,14.99317475,0.0002962,69.9981,196.2337,264.7161,95.366,4.7733e-05,4.9e-06,0.0,0 STARLINK-6352,1 56782U 23078R   23358.92304265  .00000490  00000-0  47733-4 0  9991,2 56782  69.9981 196.2337 0002962 264.7161  95.3660 14.99317475 32474,6947.141,96.044,571.064,566.948,0.0
56782.0,STARLINK-6352,PAYLOAD,2023-12-25 14:09:54,14.99310005,0.0002673,69.9987,194.549,260.7903,99.2955,-9.4475e-05,-1.25e-05,0.0,0 STARLINK-6352,1 56782U 23078R   23359.59021322 -.00001250  00000-0 -94475-4 0  9997,2 56782  69.9987 194.5490 0002673 260.7903  99.2955 14.99310005 32573,6947.164,96.044,570.886,567.172,0.0
56782.0,STARLINK-6352,PAYLOAD,2023-12-25 18:58:07,14.99309077,0.0002695,69.9987,194.0436,260.1234,99.9621,-0.0001005,-1.324e-05,0.0,0 STARLINK-6352,1 56782U 23078R   23359.79036288 -.00001324  00000-0 -10050-3 0  9994,2 56782  69.9987 194.0436 0002695 260.1234  99.9621 14.99309077 32869,6947.167,96.044,570.904,567.16,0.0
56782.0,STARLINK-6352,PAYLOAD,2023-12-25 22:10:16,14.99305683,0.0002752,69.9988,193.7068,262.648,97.4366,-0.00013693,-1.769e-05,0.0,0 STARLINK-6352,1 56782U 23078R   23359.92379915 -.00001769  00000-0 -13693-3 0  9995,2 56782  69.9988 193.7068 0002752 262.6480  97.4366 14.99305683 32623,6947.177,96.044,570.954,567.13,0.0
56782.0,STARLINK-6352,PAYLOAD,2023-12-26 14:10:59,14.99306583,0.0002726,69.9991,192.0227,261.4471,98.6379,-9.023e-05,-1.198e-05,0.0,0 STARLINK-6352,1 56782U 23078R   23360.59096200 -.00001198  00000-0 -90230-4 0  9992,2 56782  69.9991 192.0227 0002726 261.4471  98.6379 14.99306583 32722,6947.175,96.044,570.933,567.146,0.0
